ORBCOMM FM05            
1 25117U 97084F   25355.27355877  .00001043  00000+0  32531-3 0  9992
2 25117  45.0130 189.2957 0002757  89.0691 271.0477 14.46729941467693
ORBCOMM FM06            
1 25118U 97084G   25355.52717558  .00000989  00000+0  30950-3 0  9990
2 25118  45.0121 187.5888 0001680  96.6514 287.0861 14.46893359468656
ORBCOMM FM07            
1 25119U 97084H   25355.53493216  .00000988  00000+0  30916-3 0  9995
2 25119  45.0119 188.3005 0003530  85.7571 274.3684 14.46905030468643
ORBCOMM FM03            
1 25158U 98007B   25355.40045429  .00000979  00000+0  38471-3 0  9993
2 25158 107.9647 160.3035 0046796 280.2295  79.3570 14.35046450450894
ORBCOMM FM04            
1 25159U 98007C   25355.42238536  .00000954  00000+0  37506-3 0  9990
2 25159 107.9639 163.6973 0042612 277.5703  82.0598 14.35293012451080
ORBCOMM FM17            
1 25413U 98046A   25355.35717959  .00000728  00000+0  29929-3 0  9998
2 25413  44.9938  93.9745 0001673 112.1028 247.9997 14.35553901430069
ORBCOMM FM18            
1 25414U 98046B   25355.47424620  .00000908  00000+0  33601-3 0  9994
2 25414  44.9941   5.7165 0003557 177.6944 182.3921 14.39175480431221
ORBCOMM FM19            
1 25415U 98046C   25355.47504897  .00000968  00000+0  35655-3 0  9997
2 25415  44.9954   7.9986 0002392 185.9762 328.0890 14.38995638431179
